EUTELSAT 7A             
1 28187U 04008A   25248.13708220  .00000102  00000+0  00000+0 0  9993
2 28187   5.0996  75.4097 0001315 130.7220  48.5304  1.00271135 78496
EUTELSAT 174A           
1 28924U 05052A   25248.12789550  .00000008  00000+0  00000+0 0  9991
2 28924   3.4901  80.0765 0006164  83.6313  40.8155  1.00271055 49479
EUTELSAT HOTBIRD 13B    
1 29270U 06032A   25248.17122902  .00000154  00000+0  00000+0 0  9994
2 29270   0.9185  85.4410 0004079  70.4520 283.3714  1.00270121 44443
EUTELSAT HOTBIRD 13C    
1 33459U 08065A   25248.16221564 -.00000102  00000+0  00000+0 0  9993
2 33459   2.2108  82.5965 0004229 101.8533 205.9808  1.00272047 44487
EUTELSAT 36B            
1 36101U 09065A   25248.17469571  .00000110  00000+0  00000+0 0  9992
2 36101   0.0637 344.8571 0005905 181.7290 291.3170  1.00272331 57855
EUTELSAT KA-SAT 9A      
1 37258U 10069A   25244.92405912  .00000064  00000+0  00000+0 0  9998
2 37258   0.0530 320.4579 0003754 174.3412 188.1837  1.00273500 41117
EUTELSAT 7 WEST A       
1 37816U 11051A   25246.73603086 -.00000060  00000+0  00000+0 0  9990
2 37816   0.0643 341.1182 0005930 190.6394  69.0281  1.00272210 51017
EUTELSAT 16A            
1 37836U 11057A   25247.52577976  .00000103  00000+0  00000+0 0  9991
2 37836   0.0673 343.1319 0005344 181.6117  24.4393  1.00274483  4468
